IRIDIUM 921 [-]         
1 24873U 97034E   24091.17662754  .00034725  00000+0  10459-2 0  9992
2 24873  86.3838 326.5924 0004356 151.2291 208.9201 15.34180285463486
IRIDIUM 26 [-]          
1 24903U 97043A   24091.09407844  .00000819  00000+0  27404-3 0  9990
2 24903  86.3913 296.5501 0002259  91.7235 268.4221 14.36262966393592
IRIDIUM 22 [-]          
1 24907U 97043E   24090.94997966  .00000751  00000+0  25622-3 0  9991
2 24907  86.3921 299.7876 0002032  88.2787 271.8642 14.35156294393182
DUMMY MASS 1 [-]        
1 24925U 97048A   24091.42557326  .00000804  00000+0  88678-4 0  9992
2 24925  86.3377 339.9313 0004409 279.3758  80.6968 14.86119599439597
DUMMY MASS 2 [-]        
1 24926U 97048B   24091.44957567  .00000802  00000+0  88882-4 0  9991
2 24926  86.3380 341.4488 0005378 294.5541  65.5122 14.85878810439386
IRIDIUM 29 [-]          
1 24944U 97051A   24091.39566854  .00000680  00000+0  22919-3 0  9996
2 24944  86.3972 329.5354 0001879  87.1789 272.9622 14.35616418389948
IRIDIUM 33 [-]          
1 24946U 97051C   24091.55948805  .00000367  00000+0  12375-3 0  9993
2 24946  86.3885 328.7242 0010039  84.0610 276.1730 14.34299798389298
IRIDIUM 28 [-]          
1 24948U 97051E   24091.38137650  .00000688  00000+0  22749-3 0  9996
2 24948  86.3972 327.3112 0002551  88.6653 271.4837 14.36565431390329
